2 52862  53.2152 219.0287 0001300  91.5251  61.2051 15.08857457    15
STARLINK-4270           
1 52863C 22062AK  26105.49770833 -.00029419  00000+0 -18446-2 0  1051
2 52863  53.2155 218.8840 0001080  88.0745 282.0287 15.08857971    10
STARLINK-4267           
1 52864C 22062AL  26105.48451389 -.00031250  00000+0 -19594-2 0  1054
2 52864  53.2153 218.9422 0001211  91.3883 187.0023 15.08857176    11
STARLINK-4274           
1 52865C 22062AM  26105.49493056 -.00037163  00000+0 -23303-2 0  1055
2 52865  53.2163 218.8972 0001224  90.1746 324.8395 15.08859108    11
STARLINK-4272           
1 52866C 22062AN  26105.48312500 -.00029220  00000+0 -18323-2 0  1050
2 52866  53.2158 218.9499 0001224  87.9333 222.9126 15.08853965    12
STARLINK-4126           
1 52867C 22062AP  26105.44006944 -.00027602  00000+0 -17308-2 0  1053
2 52867  53.2166 219.1422 0001240  95.9414  60.9075 15.08854119    13
STARLINK-4261           
1 52868C 22062AQ  26105.46159722 -.00030781  00000+0 -19316-2 0  1052
2 52868  53.2160 219.0747 0001264 113.2425 100.7409 15.08828476    10
STARLINK-4266           
1 52869C 22062AR  26105.45743056 -.00026945  00000+0 -16895-2 0  1057
2 52869  53.2155 209.0644 0001205  90.9279 195.2732 15.08855983    14
STARLINK-4207           
1 52871C 22062AT  26105.46368056 -.00035733  00000+0 -22407-2 0  1055
2 52871  53.2163 209.0372 0001236  89.9024 290.2759 15.08857846    19
STARLINK-4213           
1 52872C 22062AU  26105.41020833 -.00044010  00000+0 -27593-2 0  1058
2 52872  53.2160 209.2485 0001225  93.4152 330.9732 15.08865994    10
STARLINK-4211           
1 52873C 22062AV  26105.48868056 -.00025618  00000+0 -16065-2 0  1058
2 52873  53.2167 208.9248 0001169  90.8150 105.2295 15.08851660    19
STARLINK-4193           
1 52875C 22062AX  26105.42479167 -.00025983  00000+0 -16290-2 0  1050
2 52875  53.2167 209.2096 0001384  77.1730 151.6140 15.08858988    11
STARLINK-4200           
1 52876C 22062AY  26105.47340278 -.00031524  00000+0 -19767-2 0  1056
2 52876  53.2164 208.9933 0001145  89.7694   3.2377 15.08855347    18
STARLINK-4214           
1 52877C 22062AZ  26105.46923611 -.00024326  00000+0 -15259-2 0  1058
2 52877  53.2151 209.0204 0001397  92.0204 158.3632 15.08838903    16
STARLINK-4171           
1 52878C 22062BA  26105.48243056 -.00024846  00000+0 -15592-2 0  1056
2 52878  53.2166 208.9503 0001258  80.5088 121.6092 15.08823339    11
STARLINK-4139           
1 52879C 22062BB  26105.48937500 -.00034747  00000+0 -21788-2 0  1056
2 52879  53.2153 208.9204 0001186  85.7400 334.0669 15.08857950    17
STARLINK-4186           
1 52880C 22062BC  26105.43243056 -.00034493  00000+0 -21628-2 0  1050
2 52880  53.2151 209.1780 0001223  88.1663   2.1645 15.08859953    11
STARLINK-4181           
1 52882C 22062BE  26105.44284722 -.00046143  00000+0 -28930-2 0  1056
2 52882  53.2165 208.7013 0001275  86.9366 320.3015 15.08868188    11
STARLINK-4260           
1 52986C 22076A   26105.44006944  .00032032  00000+0  20086-2 0  1058
2 52986  53.2155 289.1403 0001246  99.2667  72.6035 15.08823750    15
STARLINK-4259           
1 52987C 22076B   26105.44701389  .00043775  00000+0  27451-2 0  1053
2 52987  53.2152 299.1113 0001342 100.5157 254.1020 15.08814992    18
STARLINK-4291           
1 52988C 22076C   26105.48451389  .00024885  00000+0  15607-2 0  1051
2 52988  53.2155 288.9398 0001356 100.5917 332.7239 15.08820092    15
STARLINK-4293           
1 52989C 22076D   26105.44493056  .00344400  00000+0  18317-1 0  1053
2 52989  53.2164 298.4953 0001143 101.8697 226.7488 15.14589033    14
STARLINK-4286           
1 52990C 22076E   26105.49215278  .00029115  00000+0  18257-2 0  1055
2 52990  53.2162 298.9090 0001356  99.0755 180.8519 15.08823647    10
STARLINK-4285           
1 52991C 22076F   26105.44423611  .00044032  00000+0  27614-2 0  1055
2 52991  53.2162 299.1244 0001296  98.5570 300.9683 15.08812731    16
STARLINK-4269           
1 52992C 22076G   26105.46576389  .00032626  00000+0  20461-2 0  1058
2 52992  53.2160 299.0367 0001422  99.3879  71.8024 15.08818858    11
STARLINK-4256           
1 52994C 22076J   26105.48868056  .00020569  00000+0  12899-2 0  1056
2 52994  53.2158 288.9226 0001471  94.2696  41.7976 15.08827428    11
STARLINK-4296           
1 52995C 22076K   26105.44284722  .00036634  00000+0  22973-2 0  1059
2 52995  53.2154 289.1270 0001479  94.3688 192.6112 15.08818262    14
STARLINK-4295           
1 52996C 22076L   26105.41923611  .00043959  00000+0  27569-2 0  1058
2 52996  53.2155 289.5163 0001474  95.9522 257.3111 15.08812481    15
STARLINK-4254           
1 52998C 22076N   26105.43659722  .00040104  00000+0  25147-2 0  1050
2 52998  53.2150 289.0696 0001364  92.3859 220.6757 15.08819633    15
STARLINK-4217           
1 52999C 22076P   26105.44145833  .00040239  00000+0  25235-2 0  1052
2 52999  53.2147 289.1356 0001362  94.2170 285.2038 15.08815040    18
STARLINK-4194           
1 53000C 22076Q   26105.47687500  .00024542  00000+0  15389-2 0  1059
2 53000  53.2155 288.9769 0001372  95.7054  36.2008 15.08827418    17
STARLINK-4190           
1 53001C 22076R   26105.45673611  .00029704  00000+0  18631-2 0  1054
2 53001  53.2146 289.0663 0001347  94.3444  28.0984 15.08814584    15
STARLINK-4121           
1 53002C 22076S   26105.42618056  .00036456  00000+0  22860-2 0  1055
2 53002  53.2152 289.2036 0001352  93.5276 142.8623 15.08820867    15
STARLINK-4255           
1 53003C 22076T   26105.49423611  .00023308  00000+0  14613-2 0  1053
2 53003  53.2148 288.8979 0001339  98.8809 267.3637 15.08832197    14
STARLINK-4253           
1 53004C 22076U   26105.43173611  .00041891  00000+0  26268-2 0  1056
2 53004  53.2148 289.1791 0001383  94.6426 211.9381 15.08818453    19
STARLINK-4288           
1 53005C 22076V   26105.45395833  .00028107  00000+0  17627-2 0  1055
2 53005  53.2151 289.0796 0001370  98.1971  69.1351 15.08820515    10
STARLINK-4290           
1 53006C 22076W   26105.48798611  .00024674  00000+0  15474-2 0  1053
2 53006  53.2146 288.9255 0001296  95.1895 217.0976 15.08821704    10
STARLINK-4215           
1 53007C 22076X   26105.46854167  .00028714  00000+0  18003-2 0  1051
2 53007  53.2157 289.0147 0001318 100.3401 186.2639 15.08828994    13
STARLINK-4275           
1 53008C 22076Y   26105.44909722  .00029520  00000+0  18512-2 0  1059
2 53008  53.2155 289.0920 0001368  96.5824  64.3629 15.08822714    10
STARLINK-4277           
1 53009C 22076Z   26105.46437500  .00024389  00000+0  15295-2 0  1055
2 53009  53.2149 279.0318 0001338  98.4747 240.4892 15.08824385    11
STARLINK-4263           
1 53010C 22076AA  26105.41576389  .00038743  00000+0  24293-2 0  1058
2 53010  53.2155 288.9791 0001391  94.2758  25.6878 15.08821640    17
STARLINK-4265           
1 53011C 22076AB  26105.49493056  .00006605  00000+0  41414-3 0  1053
2 53011  53.2151 278.8948 0001267  98.6706  66.3602 15.08838356    18
STARLINK-4271           
1 53012C 22076AC  26105.44354167  .00030916  00000+0  19387-2 0  1053
2 53012  53.2155 289.1262 0001341  99.5877  71.1480 15.08821904    18
STARLINK-4177           
1 53013C 22076AD  26105.40743056  .00036727  00000+0  23031-2 0  1056
2 53013  53.2150 279.2872 0001506 114.1655 335.1790 15.08819742    16
STARLINK-4183           
1 53014C 22076AE  26105.48381944  .00016232  00000+0  10181-2 0  1050
2 53014  53.2146 278.9443 0001385  85.0727 339.5234 15.08820909    11
STARLINK-4262           
1 53015C 22076AF  26105.48243056  .00010919  00000+0  68458-3 0  1059
2 53015  53.2154 278.9507 0001323  99.8947  77.1818 15.08839276    11
STARLINK-4283           
1 53016C 22076AG  26105.42965278  .00027224  00000+0  17072-2 0  1053
2 53016  53.2151 279.1877 0001311  98.5604  91.6876 15.08824264    11
STARLINK-4281           
1 53017C 22076AH  26105.46506944  .00160800  00000+0  77231-2 0  1050
2 53017  53.2167 278.5778 0001374  85.2226 251.0930 15.18252313    18
STARLINK-4279           
1 53018C 22076AJ  26105.42340278  .00417030  00000+0  20814-1 0  1057
2 53018  53.2171 278.7961 0001431  77.0813 312.1413 15.16786422    11
STARLINK-4282           
1 53019C 22076AK  26105.49006944  .00012018  00000+0  75360-3 0  1059
2 53019  53.2158 278.9174 0001353  98.4357 180.1708 15.08833093    16
STARLINK-4287           
1 53020C 22076AL  26105.46229167  .00023513  00000+0  14747-2 0  1055
2 53020  53.2152 279.0399 0001268 107.7746 299.7977 15.08819604    11
STARLINK-4216           
1 53022C 22076AN  26105.46645833  .00018613  00000+0  11670-2 0  1056
2 53022  53.2156 279.0222 0001311  94.6280  35.6533 15.08835484    17
STARLINK-4284           
1 53023C 22076AP  26105.42687500  .00037367  00000+0  23422-2 0  1055
2 53023  53.2153 279.1914 0001501 101.3165 273.8138 15.08835822    16
STARLINK-4289           
1 53024C 22076AQ  26105.44770833  .00025918  00000+0  16253-2 0  1053
2 53024  53.2154 279.1065 0001433  95.6162  12.7762 15.08825258    16
STARLINK-4218           
1 53025C 22076AR  26105.47270833  .00020647  00000+0  12944-2 0  1059
2 53025  53.2152 278.9944 0001406  93.0423 191.2106 15.08837978    17
STARLINK-4119           
1 53026C 22076AS  26105.42270833  .00038268  00000+0  23997-2 0  1053
2 53026  53.2153 279.1134 0001530  89.2125 258.1251 15.08819136    17
STARLINK-4158           
1 53027C 22076AT  26105.47479167  .00021870  00000+0  13712-2 0  1055
2 53027  53.2148 278.9849 0001368  95.4652 260.1166 15.08832267    13
STARLINK-4143           
1 53029C 22076AV  26105.47409722  .00010181  00000+0  63833-3 0  1050
2 53029  53.2154 268.9891 0001369  95.4506 331.3515 15.08837443    17
STARLINK-4160           
1 53030C 22076AW  26105.49006944  .00013595  00000+0  85236-3 0  1056
2 53030  53.2157 279.1108 0001443  94.3698 204.1192 15.08838434    19
STARLINK-4137           
1 53031C 22076AX  26105.48659722  .00001508  00000+0  94502-4 0  1052
2 53031  53.2150 268.9328 0001403  93.2329 101.4836 15.08849055    13
